[{"OBJECT_NAME":"STARLINK-31544","OBJECT_ID":"2024-064B","EPOCH":"2026-03-09T01:04:42.358080","MEAN_MOTION":15.27581907,"ECCENTRICITY":0.00012921,"INCLINATION":43.0027,"RA_OF_ASC_NODE":60.1166,"ARG_OF_PERICENTER":271.7912,"MEAN_ANOMALY":88.2792,"EPHEMERIS_TYPE":0,"CLASSIFICATION_TYPE":"U","NORAD_CAT_ID":59399,"ELEMENT_SET_NO":999,"REV_AT_EPOCH":10912,"BSTAR":2.0080436e-5,"MEAN_MOTION_DOT":2.91e-6,"MEAN_MOTION_DDOT":0},{"OBJECT_NAME":"HAWK-11A","OBJECT_ID":"2024-247F","EPOCH":"2026-03-09T12:17:43.893312","MEAN_MOTION":15.28849427,"ECCENTRICITY":0.00054663,"INCLINATION":44.9941,"RA_OF_ASC_NODE":114.3328,"ARG_OF_PERICENTER":327.3713,"MEAN_ANOMALY":32.6832,"EPHEMERIS_TYPE":0,"CLASSIFICATION_TYPE":"U","NORAD_CAT_ID":62382,"ELEMENT_SET_NO":999,"REV_AT_EPOCH":6774,"BSTAR":0.00034106017,"MEAN_MOTION_DOT":9.457e-5,"MEAN_MOTION_DDOT":0}]
